[
  {
    "name": "STARLINK-31414",
    "noradId": "59418",
    "line1": "1 59418U 24064W   26182.91091682  .00000839  00000+0  40012-4 0  9998",
    "line2": "2 59418  43.0031 131.1812 0001064 265.1650  94.9080 15.27583025126695"
  },
  {
    "name": "STARLINK-31415",
    "noradId": "59419",
    "line1": "1 59419U 24064X   26182.93661748  .00000978  00000+0  45062-4 0  9991",
    "line2": "2 59419  43.0010 131.3720 0001258 267.0501  93.0206 15.27582700126693"
  },
  {
    "name": "STARLINK-31466",
    "noradId": "59420",
    "line1": "1 59420U 24064Y   26182.86736145 -.00010715  00000+0 -38011-3 0  9996",
    "line2": "2 59420  43.0017 131.7123 0000837 228.5431 131.5349 15.27607053126683"
  },
  {
    "name": "STARLINK-11087 [DTC]",
    "noradId": "59421",
    "line1": "1 59421U 24065A   26182.48206603  .00002279  00000+0  23660-4 0  9996",
    "line2": "2 59421  53.1583 253.0630 0000686  87.4537 272.6560 15.69712299129383"
  },
  {
    "name": "STARLINK-11090 [DTC]",
    "noradId": "59422",
    "line1": "1 59422U 24065B   26182.91304099  .00000021  00000+0  50316-5 0  9995",
    "line2": "2 59422  53.1580 250.7690 0001067  57.8126 302.2996 15.69704034129471"
  },
  {
    "name": "STARLINK-11093 [DTC]",
    "noradId": "59423",
    "line1": "1 59423U 24065C   26182.91795902 -.00002018  00000+0 -11805-4 0  9992",
    "line2": "2 59423  53.1581 250.8020 0001731  77.3236 282.7975 15.69693776129466"
  },
  {
    "name": "STARLINK-11083 [DTC]",
    "noradId": "59424",
    "line1": "1 59424U 24065D   26182.92285484 -.00000053  00000+0  44175-5 0  9996",
    "line2": "2 59424  53.1588 250.8323 0000740  96.9888 263.1214 15.69700699129416"
  },
  {
    "name": "STARLINK-11085 [DTC]",
    "noradId": "59425",
    "line1": "1 59425U 24065E   26182.90813845 -.00001105  00000+0 -42728-5 0  9995",
    "line2": "2 59425  53.1579 250.7369 0000868  84.0536 276.0581 15.69701202129416"
  },
  {
    "name": "STARLINK-11089 [DTC]",
    "noradId": "59426",
    "line1": "1 59426U 24065F   26182.48697115  .00003618  00000+0  34687-4 0  9992",
    "line2": "2 59426  53.1581 253.1108 0001050  68.3075 291.8055 15.69727810129396"
  },
  {
    "name": "STARLINK-31757",
    "noradId": "59427",
    "line1": "1 59427U 24065G   26182.79853917  .00000867  00000+0  36780-4 0  9990",
    "line2": "2 59427  53.1603 110.6954 0001438  93.2145 266.9022 15.34401807126417"
  },
  {
    "name": "STARLINK-31773",
    "noradId": "59429",
    "line1": "1 59429U 24065J   26182.08147353  .00000314  00000+0  22724-4 0  9994",
    "line2": "2 59429  53.1610 116.8718 0001494  86.9330 273.1842 15.30192474126266"
  },
  {
    "name": "STARLINK-31772",
    "noradId": "59430",
    "line1": "1 59430U 24065K   26182.96037248  .00001631  00000+0  59403-4 0  9991",
    "line2": "2 59430  53.1617 110.2711 0001283  99.0209 261.0938 15.34400166126437"
  },
  {
    "name": "STARLINK-31613",
    "noradId": "59431",
    "line1": "1 59431U 24065L   26182.28376531  .00007579  00000+0  23513-3 0  9997",
    "line2": "2 59431  53.1607 113.1647 0001201  86.0039 274.1100 15.34411852126333"
  },
  {
    "name": "STARLINK-31780",
    "noradId": "59432",
    "line1": "1 59432U 24065M   26182.79643837  .00002308  00000+0  79433-4 0  9998",
    "line2": "2 59432  53.1598 110.6717 0001314  74.4173 285.6974 15.34395117126418"
  },
  {
    "name": "STARLINK-31740",
    "noradId": "59433",
    "line1": "1 59433U 24065N   26182.79782218  .00000897  00000+0  42413-4 0  9995",
    "line2": "2 59433  53.1587 113.5220 0001860  68.1666 291.9533 15.30195079126378"
  },
  {
    "name": "STARLINK-31580",
    "noradId": "59434",
    "line1": "1 59434U 24065P   26182.80626064  .00000649  00000+0  34045-4 0  9991",
    "line2": "2 59434  53.1590 113.5720 0001298  86.1843 273.9307 15.30199615126379"
  },
  {
    "name": "STARLINK-31696",
    "noradId": "59435",
    "line1": "1 59435U 24065Q   26182.94143368  .00001291  00000+0  49339-4 0  9994",
    "line2": "2 59435  53.1604 110.1544 0001189  86.5195 273.5943 15.34401585126431"
  },
  {
    "name": "STARLINK-31700",
    "noradId": "59436",
    "line1": "1 59436U 24065R   26182.95405783  .00002734  00000+0  92000-4 0  9994",
    "line2": "2 59436  53.1609 110.2310 0000940  80.9301 279.1808 15.34410530126432"
  },
  {
    "name": "STARLINK-31706",
    "noradId": "59437",
    "line1": "1 59437U 24065S   26182.08041466  .00001902  00000+0  76326-4 0  9992",
    "line2": "2 59437  53.1600 116.8708 0001414  77.7519 282.3640 15.30197493126266"
  },
  {
    "name": "STARLINK-31711",
    "noradId": "59438",
    "line1": "1 59438U 24065T   26182.94774405  .00001569  00000+0  57564-4 0  9996",
    "line2": "2 59438  53.1619 110.1942 0001530 108.6151 251.5018 15.34399547126433"
  },
  {
    "name": "STARLINK-31708",
    "noradId": "59439",
    "line1": "1 59439U 24065U   26182.96667965 -.00024451  00000+0 -71541-3 0  9998",
    "line2": "2 59439  53.1591 110.3055 0001405  77.5154 282.6006 15.34375799126433"
  },
  {
    "name": "STARLINK-31693",
    "noradId": "59441",
    "line1": "1 59441U 24065W   26182.77759208  .00000909  00000+0  38040-4 0  9990",
    "line2": "2 59441  53.1618 111.2601 0001401  81.9450 278.1712 15.34395647126402"
  },
  {
    "name": "STARLINK-31622",
    "noradId": "59456",
    "line1": "1 59456U 24068B   26182.81110704  .00002594  00000+0  10372-3 0  9995",
    "line2": "2 59456  43.0028 110.2357 0001518 274.0979  85.9699 15.27595622125974"
  },
  {
    "name": "STARLINK-31319",
    "noradId": "59457",
    "line1": "1 59457U 24068C   26182.85257205  .00000381  00000+0  23365-4 0  9997",
    "line2": "2 59457  43.0044 106.2271 0001832 288.6716  71.3936 15.27589088126021"
  },
  {
    "name": "STARLINK-31625",
    "noradId": "59458",
    "line1": "1 59458U 24068D   26182.86622660  .00001005  00000+0  46035-4 0  9993",
    "line2": "2 59458  43.0035 109.7871 0001346 265.7258  94.3440 15.27585525125984"
  },
  {
    "name": "STARLINK-31631",
    "noradId": "59459",
    "line1": "1 59459U 24068E   26182.83844336 -.00000053  00000+0  76024-5 0  9992",
    "line2": "2 59459  43.0003 106.1195 0000844 226.0788 133.9994 15.27592763126022"
  },
  {
    "name": "STARLINK-31620",
    "noradId": "59460",
    "line1": "1 59460U 24068F   26182.79490430 -.00000326  00000+0 -23306-5 0  9990",
    "line2": "2 59460  43.0003 106.6521 0001095 272.7997  87.2729 15.27579864126014"
  },
  {
    "name": "STARLINK-31511",
    "noradId": "59462",
    "line1": "1 59462U 24068H   26182.87265353  .00000919  00000+0  42890-4 0  9999",
    "line2": "2 59462  43.0016 109.8355 0000966 247.4404 112.6345 15.27586798125984"
  },
  {
    "name": "STARLINK-31364",
    "noradId": "59463",
    "line1": "1 59463U 24068J   26182.84615312  .00001470  00000+0  62908-4 0  9996",
    "line2": "2 59463  43.0042 106.1774 0001149 264.0936  95.9784 15.27584648126026"
  },
  {
    "name": "STARLINK-31597",
    "noradId": "59464",
    "line1": "1 59464U 24068K   26182.86236870  .00000893  00000+0  41971-4 0  9992",
    "line2": "2 59464  43.0035 109.7560 0001530 264.6926  95.3751 15.27584932125933"
  },
  {
    "name": "STARLINK-31621",
    "noradId": "59465",
    "line1": "1 59465U 24068L   26182.08416590  .00001701  00000+0  71307-4 0  9991",
    "line2": "2 59465  43.0002 114.2472 0001005 252.0407 108.0336 15.27580995125861"
  },
  {
    "name": "STARLINK-31462",
    "noradId": "59466",
    "line1": "1 59466U 24068M   26182.85466542  .00000301  00000+0  20471-4 0  9990",
    "line2": "2 59466  43.0060 109.6851 0001039 256.1074 103.9663 15.27576378125987"
  },
  {
    "name": "STARLINK-31592",
    "noradId": "59467",
    "line1": "1 59467U 24068N   26182.81497803  .00001672  00000+0  70279-4 0  9994",
    "line2": "2 59467  43.0024 110.2629 0001251 272.7129  87.3579 15.27583059125974"
  },
  {
    "name": "STARLINK-31267",
    "noradId": "59468",
    "line1": "1 59468U 24068P   26182.08449816  .00002546  00000+0  10201-3 0  9994",
    "line2": "2 59468  43.0057 109.9068 0002301 278.6937  81.3654 15.27587006125910"
  },
  {
    "name": "STARLINK-31381",
    "noradId": "59469",
    "line1": "1 59469U 24068Q   26182.80261199  .00001278  00000+0  55937-4 0  9998",
    "line2": "2 59469  43.0011 106.7092 0001124 266.6043  93.4680 15.27584269126013"
  },
  {
    "name": "STARLINK-31546",
    "noradId": "59470",
    "line1": "1 59470U 24068R   26182.84872119  .00001079  00000+0  48714-4 0  9998",
    "line2": "2 59470  43.0035 106.1942 0000928 251.7126 108.3625 15.27589831126023"
  },
  {
    "name": "STARLINK-31575",
    "noradId": "59471",
    "line1": "1 59471U 24068S   26182.07180121  .00001296  00000+0  56599-4 0  9990",
    "line2": "2 59471  42.9998 110.6795 0001111 221.9408 138.1358 15.27579422125908"
  },
  {
    "name": "STARLINK-31610",
    "noradId": "59473",
    "line1": "1 59473U 24068U   26182.84697027 -.00000619  00000+0 -12962-4 0  9991",
    "line2": "2 59473  43.0038 109.6410 0000989 263.7368  96.3371 15.27569061125986"
  },
  {
    "name": "STARLINK-31581",
    "noradId": "59474",
    "line1": "1 59474U 24068V   26182.84663503  .00000773  00000+0  37609-4 0  9998",
    "line2": "2 59474  43.0032 102.7044 0001519 264.0287  96.0391 15.27583100126061"
  },
  {
    "name": "STARLINK-31566",
    "noradId": "59475",
    "line1": "1 59475U 24068W   26181.87001988  .00000132  00000+0  14329-4 0  9997",
    "line2": "2 59475  43.0031 115.2059 0001069 272.9961  87.0768 15.27576129125838"
  },
  {
    "name": "STARLINK-31515",
    "noradId": "59476",
    "line1": "1 59476U 24068X   26182.85851595  .00002762  00000+0  10984-3 0  9997",
    "line2": "2 59476  43.0039 109.7236 0001408 265.2836  94.7855 15.27586040125986"
  },
  {
    "name": "STARLINK-31531",
    "noradId": "59477",
    "line1": "1 59477U 24068Y   26182.95238867  .00001373  00000+0  59394-4 0  9996",
    "line2": "2 59477  43.0035  54.0680 0001763 283.8165  76.2490 15.27592184126621"
  }
]